NORAD_CAT_ID,OBJECT_NAME,OBJECT_TYPE,EPOCH,MEAN_MOTION,ECCENTRICITY,INCLINATION,RA_OF_ASC_NODE,ARG_OF_PERICENTER,MEAN_ANOMALY,BSTAR,MEAN_MOTION_DOT,MEAN_MOTION_DDOT,TLE_LINE0,TLE_LINE1,TLE_LINE2,SEMIMAJOR_AXIS,PERIOD,APOGEE,PERIGEE,DECAYED
52600.0,STARLINK-4026,PAYLOAD,2024-05-14 09:41:49,15.08886314,0.0003324,53.2176,21.2173,74.2892,285.8467,0.00056793,8.774e-05,0.0,0 STARLINK-4026,1 52600U 22052C   24135.40405056  .00008774  00000-0  56793-3 0  9992,2 52600  53.2176  21.2173 0003324  74.2892 285.8467 15.08886314110948,6917.739,95.435,541.903,537.304,0.0
52600.0,STARLINK-4026,PAYLOAD,2024-05-14 22:24:54,15.08850995,0.0001731,53.2175,18.8407,73.169,286.9492,-0.00026166,-4.451e-05,0.0,0 STARLINK-4026,1 52600U 22052C   24135.93396610 -.00004451  00000-0 -26166-3 0  9996,2 52600  53.2175  18.8407 0001731  73.1690 286.9492 15.08850995111456,6917.847,95.437,540.909,538.514,0.0
52600.0,STARLINK-4026,PAYLOAD,2024-05-15 01:35:40,15.08855338,0.0001507,53.2166,18.2424,76.5315,283.5845,6.6619e-06,-1.82e-06,0.0,0 STARLINK-4026,1 52600U 22052C   24136.06644399 -.00000182  00000-0  66619-5 0  9996,2 52600  53.2166  18.2424 0001507  76.5315 283.5845 15.08855338111047,6917.834,95.437,540.741,538.656,0.0
52600.0,STARLINK-4026,PAYLOAD,2024-05-15 09:32:36,15.08858473,0.0001574,53.2166,16.7577,73.4752,286.6412,0.00096068,0.00015042,0.0,0 STARLINK-4026,1 52600U 22052C   24136.39764325  .00015042  00000-0  96068-3 0  9993,2 52600  53.2166  16.7577 0001574  73.4752 286.6412 15.08858473111524,6917.824,95.436,540.778,538.6,0.0
52600.0,STARLINK-4026,PAYLOAD,2024-05-15 20:40:19,15.08834532,0.0002003,53.2171,14.6754,88.1735,271.9486,0.00023478,3.45e-05,0.0,0 STARLINK-4026,1 52600U 22052C   24136.86133195  .00003450  00000-0  23478-3 0  9995,2 52600  53.2171  14.6754 0002003  88.1735 271.9486 15.08834532111164,6917.897,95.438,541.148,538.376,0.0
52600.0,STARLINK-4026,PAYLOAD,2024-05-15 22:15:42,15.088354,0.0001681,53.2158,14.3776,90.149,269.9695,0.00038514,5.846e-05,0.0,0 STARLINK-4026,1 52600U 22052C   24136.92757135  .00005846  00000-0  38514-3 0  9996,2 52600  53.2158  14.3776 0001681  90.1490 269.9695 15.08835400111605,6917.894,95.438,540.922,538.597,0.0
52600.0,STARLINK-4026,PAYLOAD,2024-05-16 09:23:23,15.08859535,0.0001627,53.2174,12.2958,96.5606,263.5571,0.0013937,0.00021974,0.0,0 STARLINK-4026,1 52600U 22052C   24137.39124882  .00021974  00000-0  13937-2 0  9996,2 52600  53.2174  12.2958 0001627  96.5606 263.5571 15.08859535111249,6917.821,95.436,540.811,538.56,0.0
52600.0,STARLINK-4026,PAYLOAD,2024-05-16 22:06:29,15.08851498,0.0001328,53.2172,9.9183,100.3172,259.797,0.0012461,0.00019606,0.0,0 STARLINK-4026,1 52600U 22052C   24137.92116987  .00019606  00000-0  12461-2 0  9992,2 52600  53.2172   9.9183 0001328 100.3172 259.7970 15.08851498111756,6917.845,95.437,540.629,538.792,0.0
52600.0,STARLINK-4026,PAYLOAD,2024-05-17 21:57:16,15.08860226,0.0001041,53.2157,5.4584,302.5693,57.5198,0.0021096,0.00033465,0.0,0 STARLINK-4026,1 52600U 22052C   24138.91477861  .00033465  00000-0  21096-2 0  9996,2 52600  53.2157   5.4584 0001041 302.5693  57.5198 15.08860226111475,6917.819,95.436,540.404,538.963,0.0
52600.0,STARLINK-4026,PAYLOAD,2024-05-18 07:29:35,15.08858609,0.0001216,53.2159,3.6759,86.5662,273.5469,0.001147,0.00018023,0.0,0 STARLINK-4026,1 52600U 22052C   24139.31221528  .00018023  00000-0  11470-2 0  9996,2 52600  53.2159   3.6759 0001216  86.5662 273.5469 15.08858609111530,6917.824,95.436,540.53,538.847,0.0
52600.0,STARLINK-4026,PAYLOAD,2024-05-18 21:48:03,15.08858423,0.0001091,53.2155,0.9966,83.7601,276.3515,0.0013324,0.00020991,0.0,0 STARLINK-4026,1 52600U 22052C   24139.90837319  .00020991  00000-0  13324-2 0  9999,2 52600  53.2155   0.9966 0001091  83.7601 276.3515 15.08858423111626,6917.824,95.436,540.444,538.934,0.0
52600.0,STARLINK-4026,PAYLOAD,2024-05-19 20:03:27,15.08824987,0.000119,53.2165,356.8337,59.9434,300.1676,-7.1923e-05,-1.432e-05,0.0,0 STARLINK-4026,1 52600U 22052C   24140.83573982 -.00001432  00000-0 -71923-4 0  9998,2 52600  53.2165 356.8337 0001190  59.9434 300.1676 15.08824987111768,6917.926,95.439,540.615,538.968,0.0
52600.0,STARLINK-4026,PAYLOAD,2024-05-19 21:38:51,15.08822705,0.0001174,53.2167,356.5365,69.0525,291.0593,-0.00011708,-2.15e-05,0.0,0 STARLINK-4026,1 52600U 22052C   24140.90198043 -.00002150  00000-0 -11708-3 0  9999,2 52600  53.2167 356.5365 0001174  69.0525 291.0593 15.08822705112205,6917.933,95.439,540.61,538.986,0.0
52600.0,STARLINK-4026,PAYLOAD,2024-05-20 23:05:01,15.08851647,0.0001107,53.2161,351.781,80.3921,279.7196,0.0012372,0.00019463,0.0,0 STARLINK-4026,1 52600U 22052C   24141.96182728  .00019463  00000-0  12372-2 0  9999,2 52600  53.2161 351.7810 0001107  80.3921 279.7196 15.08851647111931,6917.845,95.437,540.476,538.944,0.0
52600.0,STARLINK-4026,PAYLOAD,2024-05-21 19:45:02,15.08852199,0.0001081,53.2161,347.911,109.2518,250.8592,0.00047463,7.276e-05,0.0,0 STARLINK-4026,1 52600U 22052C   24142.82294329  .00007276  00000-0  47463-3 0  9995,2 52600  53.2161 347.9110 0001081 109.2518 250.8592 15.08852199112063,6917.843,95.437,540.456,538.96,0.0
52600.0,STARLINK-4026,PAYLOAD,2024-05-21 21:20:25,15.08846916,0.000129,53.2168,347.614,76.7916,283.322,0.00025541,3.78e-05,0.0,0 STARLINK-4026,1 52600U 22052C   24142.88918545  .00003780  00000-0  25541-3 0  9993,2 52600  53.2168 347.6140 0001290  76.7916 283.3220 15.08846916112500,6917.859,95.437,540.617,538.832,0.0
52600.0,STARLINK-4026,PAYLOAD,2024-05-21 22:55:48,15.08848998,0.0001325,53.2171,347.3135,75.0192,285.0947,0.00025809,3.823e-05,0.0,0 STARLINK-4026,1 52600U 22052C   24142.95542459  .00003823  00000-0  25809-3 0  9993,2 52600  53.2171 347.3135 0001325  75.0192 285.0947 15.08848998112082,6917.853,95.437,540.635,538.801,0.0
52600.0,STARLINK-4026,PAYLOAD,2024-05-22 19:35:49,15.08849306,0.0001506,53.2181,343.4443,66.3893,293.7257,0.00018381,2.639e-05,0.0,0 STARLINK-4026,1 52600U 22052C   24143.81654174  .00002639  00000-0  18381-3 0  9998,2 52600  53.2181 343.4443 0001506  66.3893 293.7257 15.08849306112213,6917.852,95.437,540.759,538.675,0.0
52600.0,STARLINK-4026,PAYLOAD,2024-05-23 19:26:35,15.08889538,0.0001661,53.2178,338.9846,68.089,292.0278,0.0009853,0.00015449,0.0,0 STARLINK-4026,1 52600U 22052C   24144.81012904  .00015449  00000-0  98530-3 0  9995,2 52600  53.2178 338.9846 0001661  68.0890 292.0278 15.08889538112365,6917.729,95.434,540.743,538.445,0.0
52600.0,STARLINK-4026,PAYLOAD,2024-05-24 19:17:24,15.08810144,8.44e-05,53.2167,334.5493,126.9105,233.1965,-0.00038146,-6.348e-05,0.0,0 STARLINK-4026,1 52600U 22052C   24145.80375109 -.00006348  00000-0 -38146-3 0  9991,2 52600  53.2167 334.5493 0000844 126.9105 233.1965 15.08810144112511,6917.972,95.439,540.421,539.253,0.0
52600.0,STARLINK-4026,PAYLOAD,2024-05-24 22:28:09,15.08821791,4.88e-05,53.2156,333.9508,105.5358,254.5688,-0.0002278,-3.909e-05,0.0,0 STARLINK-4026,1 52600U 22052C   24145.93622287 -.00003909  00000-0 -22780-3 0  9994,2 52600  53.2156 333.9508 0000488 105.5358 254.5688 15.08821791112964,6917.936,95.439,540.139,539.463,0.0
52600.0,STARLINK-4026,PAYLOAD,2024-05-25 12:46:36,15.08860818,0.0001142,53.2159,331.2708,89.2761,270.8362,-0.00051798,-8.527e-05,0.0,0 STARLINK-4026,1 52600U 22052C   24146.53237089 -.00008527  00000-0 -51798-3 0  9995,2 52600  53.2159 331.2708 0001142  89.2761 270.8362 15.08860818112620,6917.817,95.436,540.472,538.892,0.0
52600.0,STARLINK-4026,PAYLOAD,2024-05-25 19:08:20,15.08719565,3.99e-05,53.2174,330.0843,74.0239,286.0797,-0.0017072,-0.00027265,0.0,0 STARLINK-4026,1 52600U 22052C   24146.79745709 -.00027265  00000-0 -17072-2 0  9992,2 52600  53.2174 330.0843 0000399  74.0239 286.0797 15.08719565112666,6918.249,95.445,540.39,539.837,0.0
52600.0,STARLINK-4026,PAYLOAD,2024-05-26 04:40:15,15.09041231,0.0001027,53.2177,328.2997,187.1263,172.9715,0.0011415,0.00018026,0.0,0 STARLINK-4026,1 52600U 22052C   24147.19462464  .00018026  00000-0  11415-2 0  9999,2 52600  53.2177 328.2997 0001027 187.1263 172.9715 15.09041231112729,6917.265,95.425,539.841,538.42,0.0
52600.0,STARLINK-4026,PAYLOAD,2024-05-26 12:37:25,15.08831674,0.0001557,53.2174,326.7986,70.0943,290.0217,9.8785e-05,1.284e-05,0.0,0 STARLINK-4026,1 52600U 22052C   24147.52598799  .00001284  00000-0  98785-4 0  9992,2 52600  53.2174 326.7986 0001557  70.0943 290.0217 15.08831674113200,6917.906,95.438,540.848,538.694,0.0
52600.0,STARLINK-4026,PAYLOAD,2024-05-26 18:58:57,15.08836661,0.000111,53.2172,325.6122,79.1948,280.9169,6.1984e-05,6.99e-06,0.0,0 STARLINK-4026,1 52600U 22052C   24147.79094695  .00000699  00000-0  61984-4 0  9997,2 52600  53.2172 325.6122 0001110  79.1948 280.9169 15.08836661112819,6917.891,95.438,540.523,538.988,0.0
52600.0,STARLINK-4026,PAYLOAD,2024-05-27 04:31:14,15.08862963,0.0001656,53.2176,323.837,93.414,266.7042,0.00034023,5.134e-05,0.0,0 STARLINK-4026,1 52600U 22052C   24148.18836766  .00005134  00000-0  34023-3 0  9996,2 52600  53.2176 323.8370 0001656  93.4140 266.7042 15.08862963112878,6917.81,95.436,540.821,538.53,0.0
52600.0,STARLINK-4026,PAYLOAD,2024-05-27 20:25:08,15.08832476,0.0001237,53.218,320.8502,86.1098,274.0035,0.00015782,2.224e-05,0.0,0 STARLINK-4026,1 52600U 22052C   24148.85079219  .00002224  00000-0  15782-3 0  9990,2 52600  53.2180 320.8502 0001237  86.1098 274.0035 15.08832476112974,6917.903,95.438,540.624,538.913,0.0
52600.0,STARLINK-4026,PAYLOAD,2024-05-28 20:15:55,15.08840777,0.0001158,53.2175,316.3918,89.9079,270.2045,8.6967e-05,1.097e-05,0.0,0 STARLINK-4026,1 52600U 22052C   24149.84439105  .00001097  00000-0  86967-4 0  9995,2 52600  53.2175 316.3918 0001158  89.9079 270.2045 15.08840777113558,6917.878,95.438,540.544,538.942,0.0
52600.0,STARLINK-4026,PAYLOAD,2024-05-29 10:34:23,15.08842912,0.0001124,53.2175,313.716,87.7636,272.3485,0.00011103,1.48e-05,0.0,0 STARLINK-4026,1 52600U 22052C   24150.44054826  .00001480  00000-0  11103-3 0  9991,2 52600  53.2175 313.7160 0001124  87.7636 272.3485 15.08842912113213,6917.871,95.437,540.514,538.959,0.0
